CCSDS_OMM_VERS = 2.0
CREATION_DATE  = 
ORIGINATOR     = 

OBJECT_NAME    = STARLINK-36704
OBJECT_ID      = 2026-025E
CENTER_NAME    = EARTH
REF_FRAME      = TEME
TIME_SYSTEM    = UTC
MEAN_ELEMENT_THEORY = SGP/SGP4

EPOCH          = 2026-03-04T06:13:19.063488
MEAN_MOTION    = 15.75273235
ECCENTRICITY   = .00017321
INCLINATION    = 97.2844
RA_OF_ASC_NODE = 174.5454
ARG_OF_PERICENTER = 93.2377
MEAN_ANOMALY   = 266.9087

EPHEMERIS_TYPE = 0
CLASSIFICATION_TYPE = U
NORAD_CAT_ID   = 67697
ELEMENT_SET_NO = 999
REV_AT_EPOCH   = 508
BSTAR          = .12458004E-2
MEAN_MOTION_DOT = .190581E-2
MEAN_MOTION_DDOT = 0

CCSDS_OMM_VERS = 2.0
CREATION_DATE  = 
ORIGINATOR     = 

OBJECT_NAME    = STARLINK-36697
OBJECT_ID      = 2026-025F
CENTER_NAME    = EARTH
REF_FRAME      = TEME
TIME_SYSTEM    = UTC
MEAN_ELEMENT_THEORY = SGP/SGP4

EPOCH          = 2026-03-04T07:01:20.867232
MEAN_MOTION    = 15.80940136
ECCENTRICITY   = .00017073
INCLINATION    = 97.2846
RA_OF_ASC_NODE = 174.6551
ARG_OF_PERICENTER = 35.7420
MEAN_ANOMALY   = 324.3963

EPHEMERIS_TYPE = 0
CLASSIFICATION_TYPE = U
NORAD_CAT_ID   = 67698
ELEMENT_SET_NO = 999
REV_AT_EPOCH   = 509
BSTAR          = .13653571E-2
MEAN_MOTION_DOT = .271217E-2
MEAN_MOTION_DDOT = 0

CCSDS_OMM_VERS = 2.0
CREATION_DATE  = 
ORIGINATOR     = 

OBJECT_NAME    = STARLINK-36716
OBJECT_ID      = 2026-025G
CENTER_NAME    = EARTH
REF_FRAME      = TEME
TIME_SYSTEM    = UTC
MEAN_ELEMENT_THEORY = SGP/SGP4

EPOCH          = 2026-03-04T12:00:00.999648
MEAN_MOTION    = 15.75197766
ECCENTRICITY   = .00006936
INCLINATION    = 97.2853
RA_OF_ASC_NODE = 174.8702
ARG_OF_PERICENTER = 75.2374
MEAN_ANOMALY   = 17.1772

EPHEMERIS_TYPE = 0
CLASSIFICATION_TYPE = U
NORAD_CAT_ID   = 67699
ELEMENT_SET_NO = 999
REV_AT_EPOCH   = 518
BSTAR          = -.24069307E-3
MEAN_MOTION_DOT = -.3589E-3
MEAN_MOTION_DDOT = 0

CCSDS_OMM_VERS = 2.0
CREATION_DATE  = 
ORIGINATOR     = 

OBJECT_NAME    = STARLINK-36712
OBJECT_ID      = 2026-025H
CENTER_NAME    = EARTH
REF_FRAME      = TEME
TIME_SYSTEM    = UTC
MEAN_ELEMENT_THEORY = SGP/SGP4

EPOCH          = 2026-03-04T05:59:05.279424
MEAN_MOTION    = 15.75410807
ECCENTRICITY   = .0001035
INCLINATION    = 97.2843
RA_OF_ASC_NODE = 174.5589
ARG_OF_PERICENTER = 136.8233
MEAN_ANOMALY   = 223.3114

EPHEMERIS_TYPE = 0
CLASSIFICATION_TYPE = U
NORAD_CAT_ID   = 67700
ELEMENT_SET_NO = 999
REV_AT_EPOCH   = 508
BSTAR          = .35299719E-2
MEAN_MOTION_DOT = .568434E-2
MEAN_MOTION_DDOT = 0

CCSDS_OMM_VERS = 2.0
CREATION_DATE  = 
ORIGINATOR     = 

OBJECT_NAME    = STARLINK-36713
OBJECT_ID      = 2026-025J
CENTER_NAME    = EARTH
REF_FRAME      = TEME
TIME_SYSTEM    = UTC
MEAN_ELEMENT_THEORY = SGP/SGP4

EPOCH          = 2026-03-04T13:39:03.189888
MEAN_MOTION    = 15.75208822
ECCENTRICITY   = .00016181
INCLINATION    = 97.2853
RA_OF_ASC_NODE = 174.8896
ARG_OF_PERICENTER = 59.4966
MEAN_ANOMALY   = 300.6459

EPHEMERIS_TYPE = 0
CLASSIFICATION_TYPE = U
NORAD_CAT_ID   = 67701
ELEMENT_SET_NO = 999
REV_AT_EPOCH   = 514
BSTAR          = .17456948E-2
MEAN_MOTION_DOT = .268837E-2
MEAN_MOTION_DDOT = 0

CCSDS_OMM_VERS = 2.0
CREATION_DATE  = 
ORIGINATOR     = 

OBJECT_NAME    = STARLINK-36695
OBJECT_ID      = 2026-025K
CENTER_NAME    = EARTH
REF_FRAME      = TEME
TIME_SYSTEM    = UTC
MEAN_ELEMENT_THEORY = SGP/SGP4

EPOCH          = 2026-03-04T06:04:40.995264
MEAN_MOTION    = 15.75452079
ECCENTRICITY   = .00013518
INCLINATION    = 97.2852
RA_OF_ASC_NODE = 174.5516
ARG_OF_PERICENTER = 137.5364
MEAN_ANOMALY   = 222.6006

EPHEMERIS_TYPE = 0
CLASSIFICATION_TYPE = U
NORAD_CAT_ID   = 67702
ELEMENT_SET_NO = 999
REV_AT_EPOCH   = 508
BSTAR          = .39988683E-2
MEAN_MOTION_DOT = .651514E-2
MEAN_MOTION_DDOT = 0

CCSDS_OMM_VERS = 2.0
CREATION_DATE  = 
ORIGINATOR     = 

OBJECT_NAME    = STARLINK-36630
OBJECT_ID      = 2026-025L
CENTER_NAME    = EARTH
REF_FRAME      = TEME
TIME_SYSTEM    = UTC
MEAN_ELEMENT_THEORY = SGP/SGP4

EPOCH          = 2026-03-04T06:49:54.557472
MEAN_MOTION    = 15.80886698
ECCENTRICITY   = .00020658
INCLINATION    = 97.2851
RA_OF_ASC_NODE = 174.6635
ARG_OF_PERICENTER = 101.8148
MEAN_ANOMALY   = 258.3352

EPHEMERIS_TYPE = 0
CLASSIFICATION_TYPE = U
NORAD_CAT_ID   = 67703
ELEMENT_SET_NO = 999
REV_AT_EPOCH   = 509
BSTAR          = .88510392E-3
MEAN_MOTION_DOT = .173374E-2
MEAN_MOTION_DDOT = 0

CCSDS_OMM_VERS = 2.0
CREATION_DATE  = 
ORIGINATOR     = 

OBJECT_NAME    = STARLINK-36338
OBJECT_ID      = 2026-025M
CENTER_NAME    = EARTH
REF_FRAME      = TEME
TIME_SYSTEM    = UTC
MEAN_ELEMENT_THEORY = SGP/SGP4

EPOCH          = 2026-03-04T12:00:00.999648
MEAN_MOTION    = 15.75101892
ECCENTRICITY   = .00013596
INCLINATION    = 97.2849
RA_OF_ASC_NODE = 174.8628
ARG_OF_PERICENTER = 128.4437
MEAN_ANOMALY   = 312.0336

EPHEMERIS_TYPE = 0
CLASSIFICATION_TYPE = U
NORAD_CAT_ID   = 67704
ELEMENT_SET_NO = 999
REV_AT_EPOCH   = 507
BSTAR          = .38741775E-3
MEAN_MOTION_DOT = .57827E-3
MEAN_MOTION_DDOT = 0

CCSDS_OMM_VERS = 2.0
CREATION_DATE  = 
ORIGINATOR     = 

OBJECT_NAME    = STARLINK-36316
OBJECT_ID      = 2026-025N
CENTER_NAME    = EARTH
REF_FRAME      = TEME
TIME_SYSTEM    = UTC
MEAN_ELEMENT_THEORY = SGP/SGP4

EPOCH          = 2026-03-04T07:19:23.280384
MEAN_MOTION    = 15.75210312
ECCENTRICITY   = .00015982
INCLINATION    = 97.2857
RA_OF_ASC_NODE = 174.6360
ARG_OF_PERICENTER = 22.7500
MEAN_ANOMALY   = 337.3836

EPHEMERIS_TYPE = 0
CLASSIFICATION_TYPE = U
NORAD_CAT_ID   = 67705
ELEMENT_SET_NO = 999
REV_AT_EPOCH   = 509
BSTAR          = .17620146E-2
MEAN_MOTION_DOT = .271453E-2
MEAN_MOTION_DDOT = 0

CCSDS_OMM_VERS = 2.0
CREATION_DATE  = 
ORIGINATOR     = 

OBJECT_NAME    = STARLINK-36707
OBJECT_ID      = 2026-025P
CENTER_NAME    = EARTH
REF_FRAME      = TEME
TIME_SYSTEM    = UTC
MEAN_ELEMENT_THEORY = SGP/SGP4

EPOCH          = 2026-03-04T12:00:00.999648
MEAN_MOTION    = 15.75141223
ECCENTRICITY   = .00013651
INCLINATION    = 97.2852
RA_OF_ASC_NODE = 174.8872
ARG_OF_PERICENTER = 75.0020
MEAN_ANOMALY   = 61.4505

EPHEMERIS_TYPE = 0
CLASSIFICATION_TYPE = U
NORAD_CAT_ID   = 67706
ELEMENT_SET_NO = 999
REV_AT_EPOCH   = 486
BSTAR          = .75209176E-4
MEAN_MOTION_DOT = .11079E-3
MEAN_MOTION_DDOT = 0

CCSDS_OMM_VERS = 2.0
CREATION_DATE  = 
ORIGINATOR     = 

OBJECT_NAME    = STARLINK-36645
OBJECT_ID      = 2026-025Q
CENTER_NAME    = EARTH
REF_FRAME      = TEME
TIME_SYSTEM    = UTC
MEAN_ELEMENT_THEORY = SGP/SGP4

EPOCH          = 2026-03-04T05:53:29.796000
MEAN_MOTION    = 15.75476666
ECCENTRICITY   = .00012596
INCLINATION    = 97.2854
RA_OF_ASC_NODE = 174.5635
ARG_OF_PERICENTER = 100.0946
MEAN_ANOMALY   = 260.0462

EPHEMERIS_TYPE = 0
CLASSIFICATION_TYPE = U
NORAD_CAT_ID   = 67707
ELEMENT_SET_NO = 999
REV_AT_EPOCH   = 508
BSTAR          = .41089457E-2
MEAN_MOTION_DOT = .671799E-2
MEAN_MOTION_DDOT = 0

CCSDS_OMM_VERS = 2.0
CREATION_DATE  = 
ORIGINATOR     = 

OBJECT_NAME    = STARLINK-36287
OBJECT_ID      = 2026-025R
CENTER_NAME    = EARTH
REF_FRAME      = TEME
TIME_SYSTEM    = UTC
MEAN_ELEMENT_THEORY = SGP/SGP4

EPOCH          = 2026-03-04T12:41:03.094656
MEAN_MOTION    = 15.80105527
ECCENTRICITY   = .00001971
INCLINATION    = 97.2854
RA_OF_ASC_NODE = 174.9426
ARG_OF_PERICENTER = 301.1750
MEAN_ANOMALY   = 58.9499

EPHEMERIS_TYPE = 0
CLASSIFICATION_TYPE = U
NORAD_CAT_ID   = 67708
ELEMENT_SET_NO = 999
REV_AT_EPOCH   = 514
BSTAR          = -.19402805E-2
MEAN_MOTION_DOT = -.345981E-2
MEAN_MOTION_DDOT = 0

